{
"type": "FeatureCollection",
"name": "binh_dinh_old_boundary",
"crs": { "type": "name", "properties": { "name": "urn:ogc:def:crs:OGC:1.3:CRS84" } },
"features": [
{ "type": "Feature", "properties": { "shapeName": "Bình Định", "shapeISO": "VN-31", "shapeID": "63759600B9901642676381", "shapeGroup": "VNM", "shapeType": "ADM1" }, "geometry": { "type": "Polygon", "coordinates": [ [ [ 108.687218510026298, 14.564878742559983 ], [ 108.687397770990401, 14.564023979223293 ], [ 108.687846229619879, 14.558939341877192 ], [ 108.690746905645256, 14.547605304840999 ], [ 108.697101074555007, 14.535067493769873 ], [ 108.70174450630401, 14.523238718092443 ], [ 108.699544985812508, 14.513775242133761 ], [ 108.686836648892267, 14.502891744758244 ], [ 108.673883920306764, 14.501235512808705 ], [ 108.662641928881953, 14.502891744758244 ], [ 108.657509714701632, 14.499579270067329 ], [ 108.655524037704254, 14.488221836268792 ], [ 108.658960787910075, 14.477499767200527 ], [ 108.667743593092382, 14.467886438108678 ], [ 108.678053842810641, 14.441632533214886 ], [ 108.680726870748572, 14.42647041587702 ], [ 108.682254315284467, 14.406499223360527 ], [ 108.684163620954394, 14.384306912234251 ], [ 108.687982232294246, 14.36063268295203 ], [ 108.693328287270674, 14.349534524598653 ], [ 108.699438065414427, 14.325116644117884 ], [ 108.711657620802612, 14.299956047733474 ], [ 108.715858093276438, 14.274052490829831 ], [ 108.712039481936586, 14.259989312656728 ], [ 108.717385536913071, 14.2351915720335 ], [ 108.719676703716971, 14.222606601413588 ], [ 108.718912982348343, 14.203357645439041 ], [ 108.720822287118892, 14.173370432599427 ], [ 108.722731592788818, 14.153376756132445 ], [ 108.728841370932571, 14.14004666032514 ], [ 108.74144278655541, 14.123382942269018 ], [ 108.748698148101141, 14.107458693563899 ], [ 108.757480954182768, 14.092644441188042 ], [ 108.76550003709707, 14.07857000979817 ], [ 108.778865175887233, 14.064494712361125 ], [ 108.788411704236808, 14.052641157663345 ], [ 108.796048926017193, 14.041157441063092 ], [ 108.798721953955067, 14.021893140855809 ], [ 108.797576370553145, 14.011148886412002 ], [ 108.791466593308712, 13.997069445798331 ], [ 108.781920064959081, 13.98113640801887 ], [ 108.776955871116627, 13.969278548266459 ], [ 108.773137259776774, 13.940372456323871 ], [ 108.776574009982653, 13.929253763750239 ], [ 108.788793565370781, 13.910350758980371 ], [ 108.801180185117516, 13.900365828220458 ], [ 108.810130054658373, 13.885306533070093 ], [ 108.816096633752693, 13.868508473387408 ], [ 108.819079924199229, 13.8551850091809 ], [ 108.826836477921177, 13.83780542897739 ], [ 108.838172979999115, 13.815789429938263 ], [ 108.847122850439234, 13.803621801405086 ], [ 108.853686087443066, 13.783920483743373 ], [ 108.857266034899624, 13.77001267244691 ], [ 108.857266034899624, 13.7543653942476 ], [ 108.854282745352464, 13.73987624139545 ], [ 108.845929533721062, 13.716112089801129 ], [ 108.8435429020833, 13.702779928251118 ], [ 108.839962953727365, 13.68828758910098 ], [ 108.844139559992755, 13.673794356924077 ], [ 108.850106139986451, 13.662199129786075 ], [ 108.855476061171373, 13.64886391323904 ], [ 108.859652667436706, 13.632628719439879 ], [ 108.864425930712173, 13.615232628582987 ], [ 108.865619247430402, 13.605954191732621 ], [ 108.864903257579329, 13.590667172951726 ], [ 108.860201592929229, 13.57688713373426 ], [ 108.853709953651503, 13.568349603351578 ], [ 108.860583454063203, 13.557213232804486 ], [ 108.868220675843588, 13.550159928238145 ], [ 108.87394859285331, 13.549417463245391 ], [ 108.886550009375469, 13.549417463245391 ], [ 108.899533287031659, 13.551273620781046 ], [ 108.914425870357718, 13.552758538176022 ], [ 108.926645425745846, 13.548303759910652 ], [ 108.935046369794179, 13.542735170391836 ], [ 108.946120341780386, 13.535310181419788 ], [ 108.958721759201865, 13.53345389797903 ], [ 108.973996203661954, 13.534567669662295 ], [ 108.998435315337588, 13.535310181419788 ], [ 109.006836259385921, 13.537166449572055 ], [ 109.019055814774106, 13.546076339751323 ], [ 109.033948398100165, 13.554985896282119 ], [ 109.051895869598752, 13.573175201774177 ], [ 109.058769370010452, 13.57762951329147 ], [ 109.066406591790837, 13.580599008137767 ], [ 109.076716842408416, 13.587280234395337 ], [ 109.096191759342275, 13.594703599191803 ], [ 109.116048537410109, 13.613260991801383 ], [ 109.119867147850641, 13.622910261399511 ], [ 109.1255950639611, 13.637012330754487 ], [ 109.138578341617233, 13.644063049769954 ], [ 109.143924398392357, 13.649629258783307 ], [ 109.151179759038712, 13.660019163253821 ], [ 109.169127231436619, 13.678942454930393 ], [ 109.181973038724834, 13.684774974785284 ], [ 109.19814867492147, 13.695163329723925 ], [ 109.205434584638454, 13.688692923439703 ], [ 109.207145322698523, 13.68489370238251 ], [ 109.212277535979581, 13.680619505286018 ], [ 109.222297571775584, 13.6787198367511 ], [ 109.232317606672268, 13.678007457678063 ], [ 109.231095651942837, 13.694391638563332 ], [ 109.223275135738959, 13.70602608873304 ], [ 109.219609269752084, 13.718847061242911 ], [ 109.218387314123333, 13.729530669005214 ], [ 109.218387314123333, 13.740451186972734 ], [ 109.219853661417403, 13.752320738811079 ], [ 109.231828825140212, 13.763002821323198 ], [ 109.237449820852589, 13.769174468327094 ], [ 109.240138122876147, 13.775345951654401 ], [ 109.235494692026464, 13.784602873124129 ], [ 109.230851261176838, 13.794808796089114 ], [ 109.227674175822642, 13.807387575776033 ], [ 109.227185394290586, 13.825186576399403 ], [ 109.226207830327155, 13.835153421793052 ], [ 109.229629304648768, 13.850340176058353 ], [ 109.241604470170216, 13.857221346787753 ], [ 109.246003510253843, 13.857221346787753 ], [ 109.249424984575455, 13.848916460226519 ], [ 109.253335243127026, 13.834441519360666 ], [ 109.257001110013277, 13.820914939672775 ], [ 109.260178193568834, 13.812134109401654 ], [ 109.266776754143962, 13.800504931957107 ], [ 109.264821625317836, 13.791960677343411 ], [ 109.257978673976709, 13.787925780850173 ], [ 109.255045981187152, 13.781517273103702 ], [ 109.254801590421096, 13.772022864963276 ], [ 109.256512326682582, 13.765851292603145 ], [ 109.263844061354405, 13.762528071913039 ], [ 109.274352877783144, 13.76205332160356 ], [ 109.284617305244524, 13.762528071913039 ], [ 109.294881731806527, 13.765613921944976 ], [ 109.297814424596083, 13.780330493557472 ], [ 109.290238300956901, 13.795283479848763 ], [ 109.28926073609415, 13.808574217726004 ], [ 109.298303207027459, 13.819253727277726 ], [ 109.301724683147654, 13.839662092831361 ], [ 109.296836860632652, 13.855085832844964 ], [ 109.294759536423555, 13.872169394901675 ], [ 109.297814424596083, 13.885144351130975 ], [ 109.294759536423555, 13.891816903427411 ], [ 109.284449285805977, 13.895894478147682 ], [ 109.276430202891618, 13.9051614288569 ], [ 109.264592507738087, 13.921099715979153 ], [ 109.253900396885854, 13.937407523738273 ], [ 109.249318064177373, 13.949637622778141 ], [ 109.250463646680032, 13.959273003246551 ], [ 109.251609230981273, 13.968907979919379 ], [ 109.252372953249278, 13.977060336965053 ], [ 109.255045981187152, 13.987065108567947 ], [ 109.256955285957758, 13.997810490761594 ], [ 109.256955285957758, 14.010037382819007 ], [ 109.253136674617906, 14.034489212707058 ], [ 109.245117591703547, 14.045602818715167 ], [ 109.237098508789188, 14.051159420271063 ], [ 109.226696611859211, 14.073280763196692 ], [ 109.218387314123333, 14.094851826250817 ], [ 109.215943402865832, 14.10883637040223 ], [ 109.213010710076276, 14.121398026098063 ], [ 109.221075616146834, 14.123531068703926 ], [ 109.227674175822642, 14.129219084593103 ], [ 109.228651740685336, 14.13775084312698 ], [ 109.224497092267029, 14.146993218961939 ], [ 109.217654140925902, 14.15765703174668 ], [ 109.205678976303773, 14.18751304519094 ], [ 109.201585425127348, 14.204098020407343 ], [ 109.200821702859344, 14.224087221847867 ], [ 109.204640314199196, 14.235561706907276 ], [ 109.201585425127348, 14.252217179978913 ], [ 109.195093785849622, 14.274422562751113 ], [ 109.186310980667258, 14.291815250573393 ], [ 109.175237008681052, 14.308466565179913 ], [ 109.146979285665566, 14.356193486340374 ], [ 109.138196481382579, 14.374319652230213 ], [ 109.1347597311767, 14.389115433430561 ], [ 109.128649953032948, 14.402060936862767 ], [ 109.129413675300952, 14.417964386047629 ], [ 109.131704842104853, 14.438674152190401 ], [ 109.124449480559122, 14.457163386081447 ], [ 109.114521091974893, 14.480087900935928 ], [ 109.105738286792587, 14.50892505444773 ], [ 109.095809898208302, 14.534801352900161 ], [ 109.087790814394623, 14.551804128857498 ], [ 109.080153591714918, 14.571023081649969 ], [ 109.085881508724697, 14.579153672404118 ], [ 109.082826619652849, 14.592827170737394 ], [ 109.077480563777044, 14.607238857787081 ], [ 109.075189397872464, 14.62719194335358 ], [ 109.075189397872464, 14.634950986398962 ], [ 109.07480753673849, 14.645295949948206 ], [ 109.074043813571222, 14.656009862165433 ], [ 109.077862425810338, 14.659334762789115 ], [ 109.083208480786823, 14.658226467977158 ], [ 109.088251398583225, 14.658376155635096 ], [ 109.088582489390433, 14.659548278930004 ], [ 109.088750626633626, 14.659585202393817 ], [ 109.073852883903555, 14.675150439940921 ], [ 109.070272936446941, 14.679190758446794 ], [ 109.055953143922522, 14.689579804964069 ], [ 109.027910218581781, 14.702276858090556 ], [ 108.987934134153022, 14.711510614823055 ], [ 108.956311261355665, 14.716127346599819 ], [ 108.9342349151093, 14.709202213411459 ], [ 108.912158569762255, 14.700545485985458 ], [ 108.897838778137157, 14.695928424157501 ], [ 108.870392510705869, 14.693042711052328 ], [ 108.851896113714758, 14.691311265202785 ], [ 108.839962953727365, 14.686116844017192 ], [ 108.828626451649484, 14.663029038359468 ], [ 108.829819768367656, 14.638784220715252 ], [ 108.82086989792748, 14.624928837196137 ], [ 108.791633656767885, 14.618000816284678 ], [ 108.774927232605762, 14.616846125448376 ], [ 108.751657572339127, 14.611649938893606 ], [ 108.734951149076323, 14.601834586097311 ], [ 108.719438040733053, 14.597215445036795 ], [ 108.693185090019938, 14.57758301274589 ], [ 108.687218510026298, 14.564878742559983 ] ] ] } }
]
}
