{
"type": "FeatureCollection",
"name": "binh_dinh_weather_grid_025",
"crs": { "type": "name", "properties": { "name": "urn:ogc:def:crs:OGC:1.3:CRS84" } },
"features": [
{ "type": "Feature", "properties": { "location_id": "binh_dinh_grid_001", "grid_lat": 14.75, "grid_lon": 108.75, "cell_south": 14.625, "cell_north": 14.875, "cell_west": 108.625, "cell_east": 108.875, "center_inside_province": false, "cell_intersects_province": true, "covered_by_current_audit_box": false }, "geometry": { "type": "Polygon", "coordinates": [ [ [ 108.875, 14.625 ], [ 108.875, 14.875 ], [ 108.625, 14.875 ], [ 108.625, 14.625 ], [ 108.875, 14.625 ] ] ] } },
{ "type": "Feature", "properties": { "location_id": "binh_dinh_grid_002", "grid_lat": 14.75, "grid_lon": 109.0, "cell_south": 14.625, "cell_north": 14.875, "cell_west": 108.875, "cell_east": 109.125, "center_inside_province": false, "cell_intersects_province": true, "covered_by_current_audit_box": false }, "geometry": { "type": "Polygon", "coordinates": [ [ [ 109.125, 14.625 ], [ 109.125, 14.875 ], [ 108.875, 14.875 ], [ 108.875, 14.625 ], [ 109.125, 14.625 ] ] ] } },
{ "type": "Feature", "properties": { "location_id": "binh_dinh_grid_003", "grid_lat": 14.5, "grid_lon": 108.75, "cell_south": 14.375, "cell_north": 14.625, "cell_west": 108.625, "cell_east": 108.875, "center_inside_province": true, "cell_intersects_province": true, "covered_by_current_audit_box": false }, "geometry": { "type": "Polygon", "coordinates": [ [ [ 108.875, 14.375 ], [ 108.875, 14.625 ], [ 108.625, 14.625 ], [ 108.625, 14.375 ], [ 108.875, 14.375 ] ] ] } },
{ "type": "Feature", "properties": { "location_id": "binh_dinh_grid_004", "grid_lat": 14.5, "grid_lon": 109.0, "cell_south": 14.375, "cell_north": 14.625, "cell_west": 108.875, "cell_east": 109.125, "center_inside_province": true, "cell_intersects_province": true, "covered_by_current_audit_box": false }, "geometry": { "type": "Polygon", "coordinates": [ [ [ 109.125, 14.375 ], [ 109.125, 14.625 ], [ 108.875, 14.625 ], [ 108.875, 14.375 ], [ 109.125, 14.375 ] ] ] } },
{ "type": "Feature", "properties": { "location_id": "binh_dinh_grid_005", "grid_lat": 14.5, "grid_lon": 109.25, "cell_south": 14.375, "cell_north": 14.625, "cell_west": 109.125, "cell_east": 109.375, "center_inside_province": false, "cell_intersects_province": true, "covered_by_current_audit_box": false }, "geometry": { "type": "Polygon", "coordinates": [ [ [ 109.375, 14.375 ], [ 109.375, 14.625 ], [ 109.125, 14.625 ], [ 109.125, 14.375 ], [ 109.375, 14.375 ] ] ] } },
{ "type": "Feature", "properties": { "location_id": "binh_dinh_grid_006", "grid_lat": 14.25, "grid_lon": 108.75, "cell_south": 14.125, "cell_north": 14.375, "cell_west": 108.625, "cell_east": 108.875, "center_inside_province": true, "cell_intersects_province": true, "covered_by_current_audit_box": false }, "geometry": { "type": "Polygon", "coordinates": [ [ [ 108.875, 14.125 ], [ 108.875, 14.375 ], [ 108.625, 14.375 ], [ 108.625, 14.125 ], [ 108.875, 14.125 ] ] ] } },
{ "type": "Feature", "properties": { "location_id": "binh_dinh_grid_007", "grid_lat": 14.25, "grid_lon": 109.0, "cell_south": 14.125, "cell_north": 14.375, "cell_west": 108.875, "cell_east": 109.125, "center_inside_province": true, "cell_intersects_province": true, "covered_by_current_audit_box": false }, "geometry": { "type": "Polygon", "coordinates": [ [ [ 109.125, 14.125 ], [ 109.125, 14.375 ], [ 108.875, 14.375 ], [ 108.875, 14.125 ], [ 109.125, 14.125 ] ] ] } },
{ "type": "Feature", "properties": { "location_id": "binh_dinh_grid_008", "grid_lat": 14.25, "grid_lon": 109.25, "cell_south": 14.125, "cell_north": 14.375, "cell_west": 109.125, "cell_east": 109.375, "center_inside_province": false, "cell_intersects_province": true, "covered_by_current_audit_box": false }, "geometry": { "type": "Polygon", "coordinates": [ [ [ 109.375, 14.125 ], [ 109.375, 14.375 ], [ 109.125, 14.375 ], [ 109.125, 14.125 ], [ 109.375, 14.125 ] ] ] } },
{ "type": "Feature", "properties": { "location_id": "binh_dinh_grid_009", "grid_lat": 14.0, "grid_lon": 108.75, "cell_south": 13.875, "cell_north": 14.125, "cell_west": 108.625, "cell_east": 108.875, "center_inside_province": false, "cell_intersects_province": true, "covered_by_current_audit_box": false }, "geometry": { "type": "Polygon", "coordinates": [ [ [ 108.875, 13.875 ], [ 108.875, 14.125 ], [ 108.625, 14.125 ], [ 108.625, 13.875 ], [ 108.875, 13.875 ] ] ] } },
{ "type": "Feature", "properties": { "location_id": "binh_dinh_grid_010", "grid_lat": 14.0, "grid_lon": 109.0, "cell_south": 13.875, "cell_north": 14.125, "cell_west": 108.875, "cell_east": 109.125, "center_inside_province": true, "cell_intersects_province": true, "covered_by_current_audit_box": true }, "geometry": { "type": "Polygon", "coordinates": [ [ [ 109.125, 13.875 ], [ 109.125, 14.125 ], [ 108.875, 14.125 ], [ 108.875, 13.875 ], [ 109.125, 13.875 ] ] ] } },
{ "type": "Feature", "properties": { "location_id": "binh_dinh_grid_011", "grid_lat": 14.0, "grid_lon": 109.25, "cell_south": 13.875, "cell_north": 14.125, "cell_west": 109.125, "cell_east": 109.375, "center_inside_province": true, "cell_intersects_province": true, "covered_by_current_audit_box": true }, "geometry": { "type": "Polygon", "coordinates": [ [ [ 109.375, 13.875 ], [ 109.375, 14.125 ], [ 109.125, 14.125 ], [ 109.125, 13.875 ], [ 109.375, 13.875 ] ] ] } },
{ "type": "Feature", "properties": { "location_id": "binh_dinh_grid_012", "grid_lat": 13.75, "grid_lon": 108.75, "cell_south": 13.625, "cell_north": 13.875, "cell_west": 108.625, "cell_east": 108.875, "center_inside_province": false, "cell_intersects_province": true, "covered_by_current_audit_box": false }, "geometry": { "type": "Polygon", "coordinates": [ [ [ 108.875, 13.625 ], [ 108.875, 13.875 ], [ 108.625, 13.875 ], [ 108.625, 13.625 ], [ 108.875, 13.625 ] ] ] } },
{ "type": "Feature", "properties": { "location_id": "binh_dinh_grid_013", "grid_lat": 13.75, "grid_lon": 109.0, "cell_south": 13.625, "cell_north": 13.875, "cell_west": 108.875, "cell_east": 109.125, "center_inside_province": true, "cell_intersects_province": true, "covered_by_current_audit_box": true }, "geometry": { "type": "Polygon", "coordinates": [ [ [ 109.125, 13.625 ], [ 109.125, 13.875 ], [ 108.875, 13.875 ], [ 108.875, 13.625 ], [ 109.125, 13.625 ] ] ] } },
{ "type": "Feature", "properties": { "location_id": "binh_dinh_grid_014", "grid_lat": 13.75, "grid_lon": 109.25, "cell_south": 13.625, "cell_north": 13.875, "cell_west": 109.125, "cell_east": 109.375, "center_inside_province": false, "cell_intersects_province": true, "covered_by_current_audit_box": true }, "geometry": { "type": "Polygon", "coordinates": [ [ [ 109.375, 13.625 ], [ 109.375, 13.875 ], [ 109.125, 13.875 ], [ 109.125, 13.625 ], [ 109.375, 13.625 ] ] ] } },
{ "type": "Feature", "properties": { "location_id": "binh_dinh_grid_015", "grid_lat": 13.5, "grid_lon": 108.75, "cell_south": 13.375, "cell_north": 13.625, "cell_west": 108.625, "cell_east": 108.875, "center_inside_province": false, "cell_intersects_province": true, "covered_by_current_audit_box": false }, "geometry": { "type": "Polygon", "coordinates": [ [ [ 108.875, 13.375 ], [ 108.875, 13.625 ], [ 108.625, 13.625 ], [ 108.625, 13.375 ], [ 108.875, 13.375 ] ] ] } },
{ "type": "Feature", "properties": { "location_id": "binh_dinh_grid_016", "grid_lat": 13.5, "grid_lon": 109.0, "cell_south": 13.375, "cell_north": 13.625, "cell_west": 108.875, "cell_east": 109.125, "center_inside_province": false, "cell_intersects_province": true, "covered_by_current_audit_box": true }, "geometry": { "type": "Polygon", "coordinates": [ [ [ 109.125, 13.375 ], [ 109.125, 13.625 ], [ 108.875, 13.625 ], [ 108.875, 13.375 ], [ 109.125, 13.375 ] ] ] } }
]
}
